{"type":"FeatureCollection","features":[{"type":"Feature","properties":{},"geometry":{"type":"LineString","coordinates":[[12.333336,45.427215],[12.333693,45.425419],[12.333539,45.424267],[12.333271,45.423146]]}},{"type":"Feature","properties":{},"geometry":{"type":"LineString","coordinates":[[12.352849,45.455868],[12.352814,45.455613],[12.352847,45.455183],[12.352877,45.455039],[12.352903,45.454972],[12.352908,45.454738],[12.352889,45.454636],[12.352818,45.454374],[12.352657,45.454194],[12.351893,45.453578],[12.3497,45.451413],[12.34956,45.45035]]}},{"type":"Feature","properties":{},"geometry":{"type":"LineString","coordinates":[[12.325917,45.430059],[12.324879,45.430516],[12.324271,45.430729],[12.323636,45.430959],[12.322924,45.431177],[12.322368,45.431273],[12.321952,45.431328]]}},{"type":"Feature","properties":{},"geometry":{"type":"LineString","coordinates":[[12.335113,45.44337],[12.334843,45.44327],[12.334819,45.443256],[12.334393,45.443011],[12.334339,45.442991]]}},{"type":"Feature","properties":{},"geometry":{"type":"LineString","coordinates":[[12.34218,45.43834],[12.342313,45.438358],[12.342855,45.438295],[12.343268,45.438226],[12.344398,45.437968],[12.344496,45.437904],[12.344809,45.437859],[12.345641,45.43784],[12.345725,45.437844]]}},{"type":"Feature","properties":{},"geometry":{"type":"LineString","coordinates":[[12.334339,45.442991],[12.334146,45.443172],[12.333916,45.443369],[12.333684,45.443555],[12.333559,45.443629],[12.333273,45.4438],[12.332977,45.44397],[12.33279,45.444073],[12.332394,45.444265],[12.332374,45.444304],[12.331944,45.444521],[12.330789,45.444825],[12.330333,45.444942],[12.329973,45.445051],[12.329463,45.445198],[12.327708,45.445603],[12.326525,45.445918]]}},{"type":"Feature","properties":{},"geometry":{"type":"LineString","coordinates":[[12.321196,45.429452],[12.320517,45.428224],[12.319733,45.426806],[12.318889,45.425361],[12.318728,45.425197]]}},{"type":"Feature","properties":{},"geometry":{"type":"LineString","coordinates":[[12.313366,45.425221],[12.313109,45.425712],[12.312892,45.42605],[12.31266,45.426583],[12.312666,45.426715]]}},{"type":"Feature","properties":{},"geometry":{"type":"LineString","coordinates":[[12.328327,45.437852],[12.32806,45.438211],[12.327901,45.438565],[12.327644,45.438883],[12.327522,45.438962]]}},{"type":"Feature","properties":{},"geometry":{"type":"LineString","coordinates":[[12.331836,45.433869],[12.331487,45.433627]]}},{"type":"Feature","properties":{},"geometry":{"type":"LineString","coordinates":[[12.326525,45.445918],[12.326318,45.445641],[12.326203,45.445536],[12.326083,45.445499],[12.325801,45.445488],[12.32509,45.445389],[12.324835,45.445417],[12.324311,45.445591],[12.324072,45.44567],[12.323849,45.445732],[12.322429,45.44607],[12.32159,45.446304],[12.321372,45.446386],[12.321268,45.446514],[12.321577,45.447136],[12.321815,45.447888],[12.321066,45.448723]]}},{"type":"Feature","properties":{},"geometry":{"type":"LineString","coordinates":[[12.332902,45.433608],[12.332703,45.433602],[12.332655,45.433587],[12.332641,45.433569],[12.332629,45.433537],[12.332619,45.433508],[12.332606,45.433491],[12.332587,45.433482],[12.332372,45.433502],[12.33223,45.43352],[12.332076,45.433545]]}},{"type":"Feature","properties":{},"geometry":{"type":"LineString","coordinates":[[12.332076,45.433545],[12.332059,45.433603],[12.331971,45.433739],[12.331836,45.433869],[12.331485,45.434191]]}},{"type":"Feature","properties":{},"geometry":{"type":"LineString","coordinates":[[12.31806,45.443747],[12.318097,45.443776],[12.318154,45.44382],[12.318373,45.443981],[12.318527,45.444091],[12.319213,45.444628],[12.319412,45.444792],[12.319612,45.444968],[12.319809,45.445147],[12.320036,45.445318],[12.320233,45.445463],[12.32046,45.445614],[12.320574,45.445687]]}},{"type":"Feature","properties":{},"geometry":{"type":"LineString","coordinates":[[12.321093,45.437033],[12.32116,45.437597],[12.321236,45.437845],[12.321262,45.437873],[12.321389,45.437943],[12.321514,45.43798],[12.321544,45.438005],[12.321554,45.438041],[12.321495,45.438296],[12.321262,45.438713],[12.320877,45.439191],[12.32071,45.439426]]}},{"type":"Feature","properties":{},"geometry":{"type":"LineString","coordinates":[[12.319596,45.432944],[12.319177,45.432758],[12.318893,45.432668],[12.318622,45.432613],[12.318379,45.432569],[12.317512,45.432518]]}},{"type":"Feature","properties":{},"geometry":{"type":"LineString","coordinates":[[12.357317,45.432579],[12.356979,45.432545],[12.356489,45.432524],[12.355918,45.4325],[12.355548,45.432483]]}},{"type":"Feature","properties":{},"geometry":{"type":"LineString","coordinates":[[12.323696,45.438897],[12.323537,45.438776],[12.323217,45.438547],[12.32308,45.438376],[12.322965,45.438088],[12.322893,45.43775],[12.322877,45.43762],[12.322977,45.437482],[12.323101,45.437377],[12.323586,45.437142],[12.323802,45.437054],[12.324158,45.436833],[12.324601,45.436633],[12.324637,45.436606],[12.324627,45.436508]]}},{"type":"Feature","properties":{},"geometry":{"type":"LineString","coordinates":[[12.32034,45.429652],[12.320517,45.43081],[12.320582,45.43123],[12.32062,45.431701],[12.32055,45.431953],[12.320226,45.432321],[12.319596,45.432944]]}},{"type":"Feature","properties":{},"geometry":{"type":"LineString","coordinates":[[12.317512,45.432518],[12.317312,45.432512],[12.317122,45.432506],[12.316977,45.432466],[12.316138,45.432121],[12.315587,45.431932]]}},{"type":"Feature","properties":{},"geometry":{"type":"LineString","coordinates":[[12.315587,45.431932],[12.315652,45.431262],[12.315674,45.430914],[12.315701,45.430016]]}},{"type":"Feature","properties":{},"geometry":{"type":"LineString","coordinates":[[12.317105,45.433187],[12.317091,45.433173],[12.317067,45.433161],[12.316334,45.432952],[12.315438,45.432651],[12.315415,45.432606],[12.315538,45.432305],[12.315587,45.431932]]}},{"type":"Feature","properties":{},"geometry":{"type":"LineString","coordinates":[[12.316287,45.434736],[12.316299,45.434685],[12.316355,45.434455],[12.316506,45.434128],[12.316724,45.433942],[12.316812,45.433837],[12.317101,45.433233],[12.317106,45.433206],[12.317105,45.433187]]}},{"type":"Feature","properties":{},"geometry":{"type":"LineString","coordinates":[[12.355918,45.4325],[12.355916,45.432535],[12.355879,45.43307],[12.355621,45.435319],[12.355615,45.435499]]}},{"type":"Feature","properties":{},"geometry":{"type":"LineString","coordinates":[[12.34744,45.436008],[12.347806,45.436194],[12.347936,45.436259],[12.348385,45.436497],[12.348697,45.4367],[12.348818,45.436795],[12.348987,45.436914],[12.349151,45.437026],[12.34925,45.437107],[12.349335,45.437181],[12.349365,45.437218]]}},{"type":"Feature","properties":{},"geometry":{"type":"LineString","coordinates":[[12.320299,45.436374],[12.32025,45.4362],[12.32026,45.43613],[12.320283,45.436048],[12.320436,45.435505],[12.320593,45.435108]]}},{"type":"Feature","properties":{},"geometry":{"type":"LineString","coordinates":[[12.344496,45.437904],[12.344451,45.43782],[12.344358,45.437417],[12.344371,45.436964],[12.344393,45.436612],[12.344402,45.436238],[12.344376,45.435762]]}},{"type":"Feature","properties":{},"geometry":{"type":"LineString","coordinates":[[12.298632,45.480565],[12.299165,45.47985],[12.299636,45.479215],[12.300239,45.478419],[12.301298,45.477516],[12.302865,45.476177],[12.304238,45.475048],[12.305075,45.47395],[12.306255,45.472701],[12.307929,45.471332],[12.309688,45.470384],[12.312692,45.469496],[12.314967,45.468744],[12.317091,45.46769],[12.319022,45.466637],[12.320846,45.465328],[12.321833,45.463883],[12.321801,45.461942],[12.321125,45.458931],[12.320846,45.457185],[12.320782,45.455816],[12.321018,45.455018],[12.322906,45.453784],[12.327476,45.451932],[12.329837,45.450607],[12.330853,45.450366],[12.331054,45.450225],[12.331801,45.449448]]}},{"type":"Feature","properties":{},"geometry":{"type":"LineString","coordinates":[[12.329941,45.44675],[12.330015,45.446822],[12.330832,45.448065],[12.331801,45.449448]]}},{"type":"Feature","properties":{},"geometry":{"type":"LineString","coordinates":[[12.369487,45.444188],[12.368273,45.441901],[12.366565,45.440525],[12.366229,45.440255],[12.365585,45.439248],[12.36495,45.437174],[12.364655,45.436213],[12.364439,45.435507],[12.363863,45.434073]]}},{"type":"Feature","properties":{},"geometry":{"type":"LineString","coordinates":[[12.261211,45.45716],[12.262713,45.456076],[12.263992,45.455274],[12.267903,45.453225],[12.27291,45.450456],[12.274258,45.449761],[12.276724,45.448467],[12.278342,45.447527],[12.281033,45.445884],[12.285185,45.443453],[12.287467,45.442107],[12.292862,45.43888],[12.29565,45.437305],[12.297435,45.436239],[12.297593,45.436144],[12.299995,45.434984],[12.301299,45.434256],[12.302419,45.43371],[12.302836,45.433507]]}},{"type":"Feature","properties":{},"geometry":{"type":"LineString","coordinates":[[12.359519,45.423776],[12.359913,45.42344],[12.361239,45.42286],[12.364243,45.421546],[12.364433,45.421463],[12.365794,45.421531],[12.367657,45.421624],[12.37361,45.425957],[12.376609,45.428551],[12.37757,45.429383],[12.380458,45.43188],[12.386524,45.436012],[12.38755,45.436486],[12.389295,45.436734],[12.390903,45.436688],[12.394684,45.436102],[12.397387,45.435483],[12.397556,45.435444],[12.40011,45.434186],[12.403537,45.432337],[12.408039,45.430659]]}},{"type":"Feature","properties":{},"geometry":{"type":"LineString","coordinates":[[12.34066,45.431428],[12.341651,45.431802],[12.341921,45.431902],[12.342761,45.432046],[12.344046,45.432262],[12.344389,45.432271],[12.344917,45.432283],[12.345679,45.432302],[12.346213,45.432187],[12.346668,45.432089],[12.347932,45.431818],[12.348553,45.431543],[12.349668,45.43105],[12.35297,45.429591],[12.353464,45.429278],[12.355056,45.428271],[12.356909,45.426641]]}},{"type":"Feature","properties":{},"geometry":{"type":"LineString","coordinates":[[12.331801,45.449448],[12.334458,45.448995],[12.336643,45.448707],[12.338012,45.448535],[12.338868,45.448587],[12.339976,45.448654],[12.343219,45.449504],[12.346491,45.449937],[12.347678,45.450095],[12.349057,45.450283],[12.34956,45.45035],[12.351208,45.45057],[12.35469,45.451349],[12.35697,45.451981],[12.357602,45.452341]]}},{"type":"Feature","properties":{},"geometry":{"type":"LineString","coordinates":[[12.302836,45.433507],[12.306275,45.431803],[12.30871,45.430596],[12.309217,45.430492],[12.309605,45.430407],[12.310968,45.430051],[12.31113,45.430071],[12.312667,45.43004],[12.314189,45.430076],[12.315701,45.430016],[12.318885,45.42989]]}},{"type":"Feature","properties":{},"geometry":{"type":"LineString","coordinates":[[12.339864,45.443768],[12.339734,45.443551],[12.339204,45.442391],[12.339038,45.441931]]}},{"type":"Feature","properties":{},"geometry":{"type":"LineString","coordinates":[[12.338698,45.438935],[12.338642,45.438906],[12.338595,45.438873],[12.33833,45.43869],[12.338079,45.43851],[12.338018,45.438512],[12.337791,45.438269]]}},{"type":"Feature","properties":{},"geometry":{"type":"LineString","coordinates":[[12.32416,45.428761],[12.323463,45.427148]]}},{"type":"Feature","properties":{},"geometry":{"type":"LineString","coordinates":[[12.327503,45.427874],[12.326873,45.426306],[12.326252,45.424985],[12.326024,45.424643],[12.325266,45.424091],[12.324886,45.423636]]}},{"type":"Feature","properties":{},"geometry":{"type":"LineString","coordinates":[[12.335748,45.43936],[12.336091,45.439497],[12.336149,45.439515],[12.33641,45.439564],[12.336498,45.439575],[12.336817,45.439584],[12.336936,45.439585],[12.337016,45.439596],[12.337042,45.43956],[12.337121,45.439502],[12.337158,45.439481],[12.337455,45.439395],[12.33774,45.439294],[12.338349,45.439032],[12.338569,45.438904],[12.338595,45.438873]]}},{"type":"Feature","properties":{},"geometry":{"type":"LineString","coordinates":[[12.338777,45.44099],[12.338831,45.440958],[12.338874,45.440923],[12.33902,45.440811],[12.339102,45.440727],[12.339178,45.440633],[12.339233,45.440567],[12.339424,45.44028],[12.339524,45.440109],[12.339549,45.440047],[12.33955,45.439929],[12.339537,45.439825],[12.339648,45.439676],[12.339682,45.439637],[12.33973,45.439607],[12.339836,45.439571],[12.339871,45.439564]]}},{"type":"Feature","properties":{},"geometry":{"type":"LineString","coordinates":[[12.339537,45.439825],[12.339511,45.439821],[12.339278,45.439666],[12.339168,45.43955],[12.339114,45.439494],[12.338822,45.439078],[12.338698,45.438935]]}},{"type":"Feature","properties":{},"geometry":{"type":"LineString","coordinates":[[12.339038,45.441931],[12.339012,45.441847],[12.338924,45.441392],[12.33889,45.441252],[12.338835,45.441106],[12.338777,45.44099],[12.338613,45.440765],[12.338471,45.440587],[12.338345,45.440463],[12.338274,45.440393],[12.338238,45.440365],[12.338117,45.44032],[12.338089,45.440315],[12.3379,45.440286],[12.337763,45.440256],[12.337051,45.440087],[12.336879,45.44005],[12.336716,45.440035],[12.336496,45.440049],[12.336357,45.440077],[12.336157,45.440116],[12.336103,45.440115],[12.336016,45.440106],[12.335937,45.440073],[12.335632,45.439901],[12.335366,45.439718]]}},{"type":"Feature","properties":{},"geometry":{"type":"LineString","coordinates":[[12.338698,45.438935],[12.338739,45.438934],[12.339231,45.438842],[12.339826,45.438704],[12.340074,45.43865],[12.34066,45.43852],[12.340991,45.438439],[12.34114,45.438463],[12.34218,45.43834]]}},{"type":"Feature","properties":{},"geometry":{"type":"LineString","coordinates":[[12.342004,45.442587],[12.341806,45.442367],[12.341531,45.442062],[12.341174,45.441601],[12.341114,45.441405],[12.340677,45.440733],[12.340505,45.440474],[12.340237,45.440148],[12.340038,45.439858],[12.339871,45.439564],[12.339831,45.439312],[12.339844,45.43902],[12.33985,45.438887],[12.339841,45.438746],[12.339826,45.438704]]}},{"type":"Feature","properties":{},"geometry":{"type":"LineString","coordinates":[[12.336195,45.438538],[12.33641,45.438553],[12.337156,45.438453],[12.337321,45.438426],[12.337485,45.438378],[12.337791,45.438269]]}},{"type":"Feature","properties":{},"geometry":{"type":"LineString","coordinates":[[12.337792,45.43811],[12.338091,45.438078],[12.338208,45.438059],[12.338468,45.438018],[12.33883,45.437958],[12.338823,45.43793],[12.338806,45.437865],[12.338789,45.437812],[12.338772,45.437778],[12.338989,45.437707],[12.339047,45.437698],[12.339095,45.437693],[12.339247,45.437668],[12.33936,45.43765],[12.339436,45.437641],[12.339547,45.437618],[12.339577,45.437637],[12.339628,45.43768],[12.339644,45.437697],[12.339657,45.437718],[12.339664,45.437746],[12.339666,45.437764],[12.339671,45.437782],[12.339785,45.437976],[12.339849,45.438094],[12.339888,45.438171],[12.339947,45.438316],[12.340007,45.438482],[12.340055,45.438601],[12.340074,45.43865]]}},{"type":"Feature","properties":{},"geometry":{"type":"LineString","coordinates":[[12.336334,45.442379],[12.335758,45.441679]]}},{"type":"Feature","properties":{},"geometry":{"type":"LineString","coordinates":[[12.33607,45.443231],[12.335443,45.442688],[12.334823,45.442129]]}},{"type":"Feature","properties":{},"geometry":{"type":"LineString","coordinates":[[12.33722,45.442888],[12.337132,45.442693],[12.336868,45.442275],[12.336338,45.441464]]}},{"type":"Feature","properties":{},"geometry":{"type":"LineString","coordinates":[[12.335243,45.443493],[12.335436,45.443471],[12.335724,45.443342],[12.33607,45.443231],[12.33722,45.442888],[12.339103,45.442416],[12.339204,45.442391]]}},{"type":"Feature","properties":{},"geometry":{"type":"LineString","coordinates":[[12.334247,45.442428],[12.334823,45.442129],[12.335198,45.441931],[12.335325,45.441868],[12.335644,45.44172],[12.335758,45.441679],[12.336338,45.441464]]}},{"type":"Feature","properties":{},"geometry":{"type":"LineString","coordinates":[[12.335443,45.442688],[12.336334,45.442379],[12.336451,45.442372],[12.336643,45.442333],[12.336868,45.442275]]}},{"type":"Feature","properties":{},"geometry":{"type":"LineString","coordinates":[[12.335058,45.443165],[12.33499,45.44306],[12.334797,45.442898],[12.334683,45.442796],[12.334677,45.442791],[12.334349,45.442495],[12.334247,45.442428],[12.333994,45.442173],[12.333429,45.441494],[12.333259,45.441321],[12.333091,45.441162],[12.332809,45.440936]]}},{"type":"Feature","properties":{},"geometry":{"type":"LineString","coordinates":[[12.336868,45.442275],[12.336953,45.442265],[12.337634,45.44219],[12.337853,45.44215],[12.338261,45.442088],[12.338985,45.441942],[12.339038,45.441931]]}},{"type":"Feature","properties":{},"geometry":{"type":"LineString","coordinates":[[12.337791,45.438269],[12.337792,45.43811],[12.337827,45.437865],[12.337827,45.437809],[12.337745,45.43749],[12.337605,45.43716],[12.337576,45.437051],[12.337563,45.436919],[12.337575,45.436758],[12.337627,45.436687],[12.337712,45.436601],[12.33792,45.436518],[12.338018,45.436498]]}},{"type":"Feature","properties":{},"geometry":{"type":"LineString","coordinates":[[12.340051,45.437512],[12.340092,45.437539],[12.340277,45.437671],[12.340501,45.437892],[12.340691,45.438091],[12.340737,45.438157],[12.340883,45.438322],[12.340941,45.43838],[12.340991,45.438439]]}},{"type":"Feature","properties":{},"geometry":{"type":"LineString","coordinates":[[12.339664,45.437746],[12.339689,45.437736],[12.339782,45.437691],[12.339874,45.437639],[12.339992,45.437554],[12.340051,45.437512],[12.340125,45.43746],[12.340216,45.43738],[12.340366,45.437236],[12.340465,45.437131],[12.340522,45.437057],[12.340559,45.436977],[12.340614,45.436808],[12.340636,45.436703],[12.340734,45.436442],[12.340668,45.436405],[12.34056,45.436343],[12.340466,45.436283],[12.340339,45.436181],[12.340091,45.435972],[12.340069,45.435938],[12.340056,45.435871]]}},{"type":"Feature","properties":{},"geometry":{"type":"LineString","coordinates":[[12.359035,45.431974],[12.359179,45.431731],[12.359233,45.431629],[12.359346,45.431218],[12.359417,45.430736],[12.359474,45.430112],[12.359467,45.429581],[12.359396,45.429071],[12.359233,45.428376],[12.358907,45.427407],[12.358433,45.42702],[12.357103,45.426427]]}},{"type":"Feature","properties":{},"geometry":{"type":"LineString","coordinates":[[12.364243,45.421546],[12.364458,45.423185],[12.363819,45.424678],[12.363814,45.424726],[12.363571,45.425817],[12.363265,45.42729],[12.362943,45.428838]]}},{"type":"Feature","properties":{},"geometry":{"type":"LineString","coordinates":[[12.324161,45.448414],[12.324055,45.448223],[12.323835,45.447786],[12.32509,45.447418],[12.325657,45.447206],[12.325739,45.447159],[12.326468,45.446901],[12.326698,45.44683],[12.327106,45.446734],[12.327788,45.446502],[12.3295,45.446022],[12.33038,45.445788],[12.331325,45.445536],[12.331483,45.445493],[12.331731,45.445424],[12.332346,45.445177],[12.332724,45.445025],[12.333085,45.444816],[12.333346,45.44466],[12.334082,45.444179],[12.334657,45.443814],[12.335067,45.443589],[12.335243,45.443493]]}},{"type":"Feature","properties":{},"geometry":{"type":"LineString","coordinates":[[12.329941,45.44675],[12.329871,45.446668],[12.3295,45.446022]]}},{"type":"Feature","properties":{},"geometry":{"type":"LineString","coordinates":[[12.333346,45.44466],[12.333505,45.4448],[12.334088,45.445252]]}},{"type":"Feature","properties":{},"geometry":{"type":"LineString","coordinates":[[12.336036,45.444246],[12.335243,45.443493],[12.335113,45.44337],[12.335058,45.443165]]}},{"type":"Feature","properties":{},"geometry":{"type":"LineString","coordinates":[[12.329941,45.44675],[12.328723,45.447118],[12.327782,45.447374],[12.326846,45.44764]]}},{"type":"Feature","properties":{},"geometry":{"type":"LineString","coordinates":[[12.329941,45.44675],[12.330029,45.446706],[12.330645,45.446509],[12.331242,45.446332],[12.332117,45.446076],[12.33221,45.446068],[12.33265,45.445919],[12.333032,45.445776],[12.333457,45.445587],[12.333719,45.445459],[12.334088,45.445252],[12.334341,45.445124]]}},{"type":"Feature","properties":{},"geometry":{"type":"LineString","coordinates":[[12.357317,45.432579],[12.357585,45.43261],[12.357679,45.432627],[12.35825,45.432769],[12.358552,45.432851]]}},{"type":"Feature","properties":{},"geometry":{"type":"LineString","coordinates":[[12.359346,45.431218],[12.358605,45.431052],[12.357843,45.430862],[12.355867,45.430351],[12.355675,45.430342],[12.355399,45.430313],[12.354983,45.430272],[12.354878,45.430249],[12.354727,45.430196],[12.354651,45.430169],[12.354553,45.430061],[12.353464,45.429278]]}},{"type":"Feature","properties":{},"geometry":{"type":"LineString","coordinates":[[12.311331,45.427012],[12.311881,45.42688],[12.312666,45.426715],[12.313402,45.426586],[12.31432,45.426475],[12.314577,45.426438],[12.315094,45.426339],[12.316502,45.425975],[12.317012,45.425843]]}},{"type":"Feature","properties":{},"geometry":{"type":"LineString","coordinates":[[12.342814,45.442121],[12.342631,45.441901],[12.34228,45.441423],[12.34201,45.441037],[12.341841,45.440782],[12.341414,45.44006],[12.341095,45.439484],[12.340943,45.439213],[12.340802,45.438961],[12.340742,45.438857],[12.340712,45.438749],[12.340674,45.438593],[12.34066,45.43852]]}},{"type":"Feature","properties":{},"geometry":{"type":"LineString","coordinates":[[12.334977,45.437345],[12.335229,45.437126],[12.335267,45.437094],[12.3356,45.436754],[12.335849,45.436515],[12.336021,45.436367],[12.336191,45.436232],[12.336362,45.436108],[12.336616,45.435927],[12.336696,45.435881],[12.336935,45.435774],[12.337055,45.43573],[12.337101,45.435704]]}},{"type":"Feature","properties":{},"geometry":{"type":"LineString","coordinates":[[12.342638,45.438067],[12.342624,45.43803],[12.342557,45.437862],[12.342551,45.437826],[12.342548,45.437688],[12.342539,45.437597],[12.342526,45.437475],[12.342512,45.437373],[12.342489,45.4373],[12.342483,45.43721],[12.342646,45.43695],[12.34276,45.436806],[12.342983,45.436539],[12.343058,45.436447],[12.343225,45.436215],[12.343267,45.436152],[12.343315,45.436093],[12.343335,45.436057],[12.343334,45.436012],[12.34332,45.435868],[12.343318,45.435803],[12.343331,45.435668],[12.343335,45.435628]]}},{"type":"Feature","properties":{},"geometry":{"type":"LineString","coordinates":[[12.338018,45.436498],[12.338221,45.436482],[12.338617,45.436505],[12.338682,45.436506],[12.33876,45.436491],[12.338993,45.436433],[12.339093,45.436392],[12.339144,45.436365],[12.339274,45.436254],[12.339394,45.436129],[12.339489,45.43602],[12.33956,45.435942],[12.339763,45.43574],[12.340056,45.435871]]}},{"type":"Feature","properties":{},"geometry":{"type":"LineString","coordinates":[[12.346322,45.440124],[12.346177,45.43991],[12.345915,45.438854],[12.345754,45.437903],[12.345725,45.437844]]}},{"type":"Feature","properties":{},"geometry":{"type":"LineString","coordinates":[[12.342489,45.4373],[12.342405,45.437312],[12.342365,45.437309],[12.342309,45.437293],[12.342063,45.437207],[12.341984,45.437176],[12.341896,45.437136],[12.341816,45.437097],[12.341751,45.437061],[12.341697,45.437025],[12.341643,45.436983],[12.341505,45.436858],[12.341424,45.436788],[12.341353,45.436725],[12.34132,45.436689],[12.341285,45.436656],[12.341241,45.436626],[12.341165,45.436581],[12.341108,45.436554],[12.340956,45.436507],[12.340779,45.436459],[12.340734,45.436442]]}},{"type":"Feature","properties":{},"geometry":{"type":"LineString","coordinates":[[12.344358,45.437417],[12.344304,45.437432],[12.344015,45.437506],[12.343887,45.437554]]}},{"type":"Feature","properties":{},"geometry":{"type":"LineString","coordinates":[[12.335981,45.43493],[12.335914,45.434872],[12.335868,45.434821],[12.335821,45.434781],[12.335759,45.434749],[12.335671,45.43472],[12.335585,45.434701],[12.335496,45.434684],[12.3354,45.434677],[12.335212,45.434677],[12.335037,45.434675],[12.334956,45.43467],[12.334869,45.434658],[12.334539,45.434567],[12.334483,45.434535]]}},{"type":"Feature","properties":{},"geometry":{"type":"LineString","coordinates":[[12.32643,45.442292],[12.326389,45.442344],[12.32631,45.442435],[12.326202,45.442566],[12.325903,45.442947],[12.325758,45.443216],[12.325707,45.443325],[12.32564,45.443534],[12.325597,45.4436],[12.325394,45.443756],[12.325031,45.443945],[12.32478,45.444082],[12.324107,45.444404],[12.32401,45.444451],[12.323838,45.444524],[12.323431,45.44467],[12.323074,45.444787],[12.322345,45.445002],[12.32168,45.445171],[12.321598,45.445191],[12.321388,45.445272],[12.321003,45.445411],[12.320878,45.445473],[12.320766,45.445538],[12.320574,45.445687],[12.320155,45.445977],[12.319821,45.446184],[12.319639,45.446281],[12.319259,45.446468],[12.318614,45.446736],[12.318409,45.446822]]}},{"type":"Feature","properties":{},"geometry":{"type":"LineString","coordinates":[[12.31672,45.444391],[12.317008,45.444452],[12.317151,45.44439],[12.317271,45.444318],[12.31744,45.444184],[12.317681,45.444008],[12.317903,45.443861],[12.31806,45.443747],[12.318385,45.443524],[12.318687,45.443318],[12.318989,45.443127],[12.319277,45.442944],[12.319483,45.442829],[12.319691,45.442727],[12.319764,45.442715],[12.319795,45.442723],[12.319848,45.442772],[12.320027,45.442955],[12.3201,45.443028],[12.32025,45.443195],[12.320432,45.443387],[12.320647,45.443621],[12.32078,45.443775],[12.320788,45.443818],[12.320793,45.443914],[12.320792,45.444035],[12.320968,45.444268],[12.321058,45.444397],[12.321134,45.444506],[12.32121,45.444598],[12.32135,45.444765],[12.321504,45.444944],[12.321632,45.445103],[12.32168,45.445171]]}},{"type":"Feature","properties":{},"geometry":{"type":"LineString","coordinates":[[12.32416,45.428761],[12.325597,45.429639],[12.325686,45.429755],[12.325917,45.430059],[12.326174,45.430292],[12.326402,45.430605],[12.326556,45.430922],[12.326671,45.431253],[12.326914,45.431723],[12.327155,45.432028],[12.327263,45.432282],[12.327458,45.432361],[12.32763,45.43236],[12.327763,45.432376]]}},{"type":"Feature","properties":{},"geometry":{"type":"LineString","coordinates":[[12.323243,45.435477],[12.323207,45.435548],[12.32327,45.436016],[12.323254,45.436101],[12.323199,45.436144],[12.323096,45.436183],[12.322776,45.436237],[12.322649,45.436297],[12.322609,45.436361],[12.322616,45.436463],[12.322628,45.436538]]}},{"type":"Feature","properties":{},"geometry":{"type":"LineString","coordinates":[[12.327478,45.433022],[12.327087,45.432957],[12.325734,45.432739],[12.325218,45.432554],[12.324532,45.432355],[12.324344,45.432302],[12.323854,45.432245],[12.323351,45.432104],[12.323059,45.431984],[12.322759,45.431913],[12.32194,45.431854]]}},{"type":"Feature","properties":{},"geometry":{"type":"LineString","coordinates":[[12.324627,45.436508],[12.32469,45.436487],[12.325444,45.436207],[12.325762,45.436076],[12.326564,45.435774],[12.326779,45.435646],[12.327442,45.435204],[12.327506,45.435154],[12.327762,45.434939]]}},{"type":"Feature","properties":{},"geometry":{"type":"LineString","coordinates":[[12.317191,45.434862],[12.317639,45.43429],[12.319465,45.434599],[12.319857,45.434697],[12.319972,45.434757]]}},{"type":"Feature","properties":{},"geometry":{"type":"LineString","coordinates":[[12.316299,45.434685],[12.317191,45.434862],[12.318224,45.435071],[12.320436,45.435505]]}},{"type":"Feature","properties":{},"geometry":{"type":"LineString","coordinates":[[12.318224,45.435071],[12.318049,45.435571],[12.320283,45.436048]]}},{"type":"Feature","properties":{},"geometry":{"type":"LineString","coordinates":[[12.315824,45.436149],[12.315611,45.436199],[12.315472,45.436458],[12.314872,45.437722],[12.314775,45.437927]]}},{"type":"Feature","properties":{},"geometry":{"type":"LineString","coordinates":[[12.330147,45.435782],[12.329905,45.436096],[12.329826,45.436135],[12.329301,45.43643],[12.329093,45.436627],[12.329019,45.437002],[12.328847,45.43743],[12.328833,45.437466],[12.328679,45.437662],[12.328488,45.437818],[12.328412,45.437881]]}},{"type":"Feature","properties":{},"geometry":{"type":"LineString","coordinates":[[12.330387,45.436919],[12.330327,45.436791],[12.330105,45.436544],[12.330026,45.436406],[12.329908,45.436267],[12.329826,45.436135]]}},{"type":"Feature","properties":{},"geometry":{"type":"LineString","coordinates":[[12.332458,45.436374],[12.332317,45.436657],[12.332097,45.436982],[12.331862,45.43725],[12.331714,45.437405]]}},{"type":"Feature","properties":{},"geometry":{"type":"LineString","coordinates":[[12.330352,45.438263],[12.330378,45.438282],[12.330924,45.438807],[12.331221,45.439103],[12.331551,45.439468],[12.331951,45.439944],[12.332259,45.44027],[12.332638,45.440617],[12.332935,45.440869]]}},{"type":"Feature","properties":{},"geometry":{"type":"LineString","coordinates":[[12.327891,45.436715],[12.327846,45.436652],[12.327635,45.436359],[12.328135,45.436172],[12.328259,45.436088],[12.328326,45.436023],[12.328295,45.435822],[12.328311,45.435693],[12.328389,45.435526],[12.328639,45.435298]]}},{"type":"Feature","properties":{},"geometry":{"type":"LineString","coordinates":[[12.331274,45.436043],[12.331131,45.436389],[12.330932,45.436715],[12.330812,45.436951],[12.330758,45.437334],[12.33073,45.437594],[12.330719,45.437697],[12.330762,45.437742]]}},{"type":"Feature","properties":{},"geometry":{"type":"LineString","coordinates":[[12.342174,45.435192],[12.342281,45.435198],[12.34235,45.435207],[12.342427,45.435271],[12.342504,45.435332],[12.3426,45.435399],[12.342682,45.435462],[12.342752,45.435501],[12.342834,45.435488],[12.34327,45.435597],[12.343335,45.435628],[12.343654,45.435694],[12.343712,45.435699],[12.343885,45.435705],[12.344161,45.435709],[12.344293,45.43571],[12.344376,45.435712]]}},{"type":"Feature","properties":{},"geometry":{"type":"LineString","coordinates":[[12.340668,45.436405],[12.340896,45.436191],[12.34112,45.435959],[12.341178,45.435912],[12.341358,45.435972],[12.341452,45.436],[12.341484,45.436006],[12.34152,45.436009],[12.341553,45.436006],[12.341575,45.436001],[12.341638,45.435976],[12.341817,45.435902],[12.34202,45.43585],[12.34218,45.435808],[12.342288,45.435775],[12.342418,45.435723],[12.342536,45.435673],[12.342616,45.435637],[12.34269,45.435589],[12.342747,45.43555],[12.342752,45.435501]]}},{"type":"Feature","properties":{},"geometry":{"type":"LineString","coordinates":[[12.344917,45.432283],[12.34535,45.433696]]}},{"type":"Feature","properties":{},"geometry":{"type":"LineString","coordinates":[[12.341651,45.431802],[12.341112,45.433361],[12.341079,45.433458],[12.3408,45.434214],[12.340383,45.435487],[12.340338,45.435614],[12.340288,45.435699],[12.340225,45.435767],[12.340156,45.435818],[12.340056,45.435871]]}},{"type":"Feature","properties":{},"geometry":{"type":"LineString","coordinates":[[12.342174,45.435192],[12.34217,45.435013],[12.342176,45.434924],[12.342206,45.434683],[12.342219,45.434451],[12.342226,45.434345],[12.342249,45.434165],[12.342259,45.434083]]}},{"type":"Feature","properties":{},"geometry":{"type":"LineString","coordinates":[[12.331487,45.433627],[12.331347,45.433405]]}},{"type":"Feature","properties":{},"geometry":{"type":"LineString","coordinates":[[12.332709,45.433195],[12.332699,45.43318],[12.332667,45.432936],[12.33265,45.432843],[12.332634,45.432789],[12.332588,45.432645],[12.332555,45.43253],[12.332534,45.432453],[12.332503,45.432292],[12.332488,45.432156],[12.332476,45.432015],[12.332465,45.431809],[12.332449,45.431572],[12.332421,45.431249]]}},{"type":"Feature","properties":{},"geometry":{"type":"LineString","coordinates":[[12.333375,45.433209],[12.333396,45.433196],[12.333412,45.433178],[12.33342,45.433147]]}},{"type":"Feature","properties":{},"geometry":{"type":"LineString","coordinates":[[12.332025,45.431237],[12.332038,45.431523],[12.332042,45.431592],[12.332045,45.431722],[12.332049,45.431839],[12.332069,45.431987],[12.332142,45.432262],[12.332187,45.432427],[12.332213,45.432499],[12.332266,45.432647],[12.332294,45.432733],[12.332353,45.432855],[12.33245,45.433053],[12.332449,45.433073],[12.332434,45.433086],[12.332412,45.433093],[12.332261,45.433117],[12.332099,45.433146],[12.331957,45.433165],[12.331976,45.433223],[12.331998,45.433253],[12.332016,45.433327],[12.332016,45.433381],[12.332054,45.433522],[12.332076,45.433545]]}},{"type":"Feature","properties":{},"geometry":{"type":"LineString","coordinates":[[12.331347,45.433405],[12.331207,45.433095],[12.330908,45.432488],[12.330759,45.432135],[12.33059,45.431738],[12.330528,45.43157],[12.330424,45.431275]]}},{"type":"Feature","properties":{},"geometry":{"type":"LineString","coordinates":[[12.335284,45.433474],[12.335349,45.433458],[12.335397,45.433436],[12.335436,45.433404],[12.335469,45.433365],[12.335501,45.43331],[12.335529,45.433209],[12.335558,45.433065]]}},{"type":"Feature","properties":{},"geometry":{"type":"LineString","coordinates":[[12.335284,45.433474],[12.335187,45.433489],[12.33513,45.433501],[12.335076,45.433525],[12.335043,45.433563],[12.334989,45.433651],[12.334961,45.43372],[12.33491,45.43392],[12.334854,45.434058],[12.334799,45.434181],[12.334727,45.434274],[12.334627,45.434386],[12.334526,45.434494],[12.334483,45.434535],[12.334431,45.434556],[12.334188,45.434761],[12.334107,45.434823],[12.334049,45.434874],[12.333978,45.434964],[12.333905,45.435084],[12.333838,45.435229],[12.333775,45.43536],[12.333694,45.435487],[12.333626,45.435577],[12.333528,45.43566],[12.333423,45.435735],[12.333242,45.435831],[12.333055,45.435951],[12.332888,45.436064],[12.332755,45.436183],[12.332593,45.436412]]}},{"type":"Feature","properties":{},"geometry":{"type":"LineString","coordinates":[[12.355879,45.43307],[12.353172,45.433235],[12.352181,45.432944],[12.351712,45.4328],[12.351444,45.432702],[12.350844,45.432435],[12.350779,45.432405],[12.350744,45.432367],[12.350728,45.432325],[12.350713,45.432198],[12.350693,45.432118],[12.350653,45.432055],[12.350518,45.431919],[12.349668,45.43105]]}},{"type":"Feature","properties":{},"geometry":{"type":"LineString","coordinates":[[12.357275,45.435148],[12.357225,45.435053],[12.357166,45.434946],[12.357072,45.434776],[12.357008,45.434651],[12.356972,45.434559],[12.35694,45.43447],[12.356908,45.434394],[12.356868,45.434335],[12.356765,45.434193],[12.356686,45.434091],[12.356661,45.434047],[12.35665,45.434009],[12.356652,45.433946],[12.356682,45.433688],[12.356713,45.433431],[12.356727,45.433355],[12.356746,45.433285],[12.356772,45.433224],[12.356797,45.433183],[12.356838,45.433137],[12.356898,45.433085],[12.356964,45.433042],[12.357134,45.43293],[12.357181,45.432897],[12.35722,45.432857],[12.357242,45.432822],[12.357267,45.432773],[12.35728,45.432731],[12.357317,45.432579]]}},{"type":"Feature","properties":{},"geometry":{"type":"LineString","coordinates":[[12.348553,45.431543],[12.349325,45.432531],[12.349489,45.432707],[12.349533,45.432784],[12.3496,45.432929],[12.350044,45.433924],[12.350081,45.434053],[12.350193,45.434804],[12.350217,45.434962]]}},{"type":"Feature","properties":{},"geometry":{"type":"LineString","coordinates":[[12.314837,45.425462],[12.314728,45.425649],[12.314448,45.42609],[12.314301,45.426392],[12.31432,45.426475]]}},{"type":"Feature","properties":{},"geometry":{"type":"LineString","coordinates":[[12.330022,45.444109],[12.330441,45.443989],[12.330684,45.443916],[12.331083,45.44381],[12.331387,45.443716],[12.331608,45.443619],[12.331714,45.443556],[12.331836,45.443453]]}},{"type":"Feature","properties":{},"geometry":{"type":"LineString","coordinates":[[12.326083,45.445499],[12.326222,45.445383],[12.326376,45.445256],[12.326454,45.445172],[12.326531,45.445073],[12.32667,45.444816],[12.32675,45.444822],[12.32688,45.444853],[12.327206,45.444962],[12.327298,45.445013],[12.327373,45.445079],[12.327554,45.445349],[12.327708,45.445603]]}},{"type":"Feature","properties":{},"geometry":{"type":"LineString","coordinates":[[12.330333,45.444942],[12.330265,45.444759],[12.330226,45.444561],[12.330175,45.444389],[12.330123,45.444262],[12.330022,45.444109]]}},{"type":"Feature","properties":{},"geometry":{"type":"LineString","coordinates":[[12.331836,45.443453],[12.331617,45.443292],[12.331288,45.443192],[12.331272,45.443186],[12.331262,45.443175],[12.33126,45.443166],[12.331263,45.443157],[12.331316,45.44302],[12.331337,45.442976],[12.331365,45.442939],[12.331431,45.442885],[12.331493,45.442843],[12.331603,45.44278],[12.33166,45.442739],[12.331731,45.44269],[12.331798,45.442627],[12.33204,45.44232],[12.331967,45.442316],[12.331526,45.442184],[12.331311,45.44209],[12.330741,45.441941]]}},{"type":"Feature","properties":{},"geometry":{"type":"LineString","coordinates":[[12.331714,45.443556],[12.332061,45.443933],[12.332182,45.444083],[12.332336,45.44426],[12.332374,45.444304]]}},{"type":"Feature","properties":{},"geometry":{"type":"LineString","coordinates":[[12.332061,45.443933],[12.33258,45.443686],[12.332789,45.44358],[12.333126,45.443385],[12.333306,45.443275],[12.333572,45.4431],[12.333835,45.442926],[12.333905,45.442858]]}},{"type":"Feature","properties":{},"geometry":{"type":"LineString","coordinates":[[12.315385,45.442127],[12.315645,45.442076],[12.315929,45.442005],[12.316218,45.441905]]}},{"type":"Feature","properties":{},"geometry":{"type":"LineString","coordinates":[[12.327263,45.432282],[12.327202,45.432297],[12.326825,45.432306],[12.326389,45.432291],[12.32618,45.432263],[12.325724,45.43215],[12.325556,45.432083],[12.325355,45.432237],[12.32521,45.432501],[12.325218,45.432554]]}},{"type":"Feature","properties":{},"geometry":{"type":"LineString","coordinates":[[12.324532,45.432355],[12.324615,45.432101],[12.324682,45.431888],[12.324681,45.431621],[12.324652,45.431413],[12.324513,45.431128],[12.324271,45.430729]]}},{"type":"Feature","properties":{},"geometry":{"type":"LineString","coordinates":[[12.321681,45.432783],[12.322215,45.432888],[12.323368,45.433018],[12.323883,45.433112],[12.32516,45.433248],[12.325553,45.433307],[12.32736,45.433456]]}},{"type":"Feature","properties":{},"geometry":{"type":"LineString","coordinates":[[12.321952,45.431328],[12.32194,45.431854],[12.321893,45.432337],[12.321681,45.432783]]}},{"type":"Feature","properties":{},"geometry":{"type":"LineString","coordinates":[[12.330271,45.431289],[12.330166,45.431053],[12.330095,45.430903],[12.329971,45.430715],[12.329727,45.430447],[12.329471,45.430091],[12.329025,45.429417],[12.328687,45.428781],[12.328663,45.427567]]}},{"type":"Feature","properties":{},"geometry":{"type":"LineString","coordinates":[[12.328663,45.427567],[12.329708,45.428643],[12.330049,45.429295],[12.33068,45.430329],[12.330701,45.430351],[12.330722,45.43036],[12.330749,45.430361],[12.330991,45.430346],[12.331099,45.430339],[12.332123,45.430329],[12.332157,45.430573],[12.332132,45.43093],[12.332098,45.431237]]}},{"type":"Feature","properties":{},"geometry":{"type":"LineString","coordinates":[[12.333336,45.427215],[12.332909,45.428517],[12.332828,45.428833],[12.332726,45.429722],[12.33269,45.430048],[12.332627,45.430659],[12.332593,45.430745],[12.332574,45.430968],[12.332525,45.431253]]}},{"type":"Feature","properties":{},"geometry":{"type":"LineString","coordinates":[[12.33632,45.428322],[12.334838,45.429452],[12.33474,45.429532],[12.334448,45.430126],[12.334362,45.430426],[12.334178,45.431055],[12.334075,45.431368]]}},{"type":"Feature","properties":{},"geometry":{"type":"LineString","coordinates":[[12.328412,45.437881],[12.328327,45.437852],[12.328015,45.437747],[12.327278,45.437644],[12.327005,45.437616]]}},{"type":"Feature","properties":{},"geometry":{"type":"LineString","coordinates":[[12.327005,45.437616],[12.327105,45.437347],[12.327242,45.437189],[12.327421,45.437055],[12.327649,45.436922],[12.327823,45.43677],[12.327891,45.436715]]}},{"type":"Feature","properties":{},"geometry":{"type":"LineString","coordinates":[[12.327522,45.438962],[12.327014,45.439457],[12.326963,45.439568],[12.326925,45.439842],[12.32693,45.439989],[12.326968,45.440087],[12.327046,45.440408],[12.327102,45.440574],[12.32715,45.440767],[12.327281,45.441101],[12.327406,45.44177],[12.327438,45.442184],[12.327405,45.442399]]}},{"type":"Feature","properties":{},"geometry":{"type":"LineString","coordinates":[[12.348953,45.43487],[12.348951,45.434893],[12.348897,45.435128],[12.349131,45.435305],[12.3496,45.436201],[12.349644,45.436335],[12.349776,45.436552],[12.349848,45.436659],[12.349918,45.436756],[12.350031,45.436913],[12.350055,45.436946]]}},{"type":"Feature","properties":{},"geometry":{"type":"LineString","coordinates":[[12.350193,45.434804],[12.350098,45.434808],[12.349184,45.43485],[12.348953,45.43487],[12.348892,45.434873],[12.348696,45.434862],[12.348655,45.434857],[12.348603,45.434837]]}},{"type":"Feature","properties":{},"geometry":{"type":"LineString","coordinates":[[12.348603,45.434837],[12.348652,45.43474],[12.348703,45.434504],[12.348752,45.43422],[12.348755,45.434131],[12.348742,45.434089],[12.348685,45.433993],[12.348604,45.433877],[12.34857,45.433835],[12.348515,45.433786],[12.348407,45.43371],[12.348278,45.433628],[12.348135,45.433512],[12.347944,45.433304],[12.346668,45.432089]]}},{"type":"Feature","properties":{},"geometry":{"type":"LineString","coordinates":[[12.34744,45.436008],[12.34758,45.435774],[12.347741,45.435577],[12.348,45.435278],[12.348381,45.435043],[12.348603,45.434837]]}},{"type":"Feature","properties":{},"geometry":{"type":"LineString","coordinates":[[12.328935,45.439557],[12.329211,45.439764],[12.329908,45.440407],[12.329994,45.440477],[12.330614,45.440975],[12.331137,45.441493],[12.331413,45.441684]]}},{"type":"Feature","properties":{},"geometry":{"type":"LineString","coordinates":[[12.331782,45.438327],[12.331884,45.438417],[12.332045,45.438532],[12.33225,45.438584],[12.332446,45.438674],[12.332607,45.438778],[12.332937,45.439073],[12.333166,45.439255],[12.3334,45.439528],[12.33349,45.439639],[12.333777,45.439893],[12.333813,45.439939],[12.334099,45.440326]]}},{"type":"Feature","properties":{},"geometry":{"type":"LineString","coordinates":[[12.328994,45.44039],[12.328717,45.440573],[12.328422,45.440759],[12.328465,45.440882],[12.328436,45.440973],[12.328506,45.441111],[12.328835,45.441602],[12.329063,45.442065],[12.329075,45.442323]]}},{"type":"Feature","properties":{},"geometry":{"type":"LineString","coordinates":[[12.326142,45.438876],[12.326586,45.438851],[12.327061,45.438893],[12.327522,45.438962],[12.328098,45.439239],[12.328369,45.43942],[12.328383,45.439446],[12.328377,45.439512],[12.328387,45.439544],[12.328449,45.439619],[12.328469,45.439749]]}},{"type":"Feature","properties":{},"geometry":{"type":"LineString","coordinates":[[12.328469,45.439749],[12.328482,45.439811],[12.328795,45.440204],[12.328994,45.44039]]}},{"type":"Feature","properties":{},"geometry":{"type":"LineString","coordinates":[[12.328552,45.424702],[12.328313,45.424735],[12.326252,45.424985]]}},{"type":"Feature","properties":{},"geometry":{"type":"LineString","coordinates":[[12.333375,45.433209],[12.333344,45.433214],[12.33319,45.433212],[12.333075,45.433218],[12.33299,45.433234],[12.332903,45.433218],[12.33274,45.433208],[12.332724,45.433202],[12.332709,45.433195]]}},{"type":"Feature","properties":{},"geometry":{"type":"LineString","coordinates":[[12.331084,45.43599],[12.331227,45.435768],[12.331473,45.435482],[12.331771,45.435212],[12.331998,45.435024]]}},{"type":"Feature","properties":{},"geometry":{"type":"LineString","coordinates":[[12.33342,45.433147],[12.33351,45.433148],[12.333597,45.433156],[12.333621,45.433161],[12.333695,45.433182],[12.33377,45.433211],[12.333873,45.433255],[12.334006,45.433306],[12.334157,45.43336],[12.334284,45.433405],[12.334355,45.433444],[12.334469,45.433499],[12.334663,45.433564],[12.334933,45.433635],[12.334989,45.433651]]}},{"type":"Feature","properties":{},"geometry":{"type":"LineString","coordinates":[[12.334188,45.434761],[12.334008,45.434657],[12.333936,45.434617],[12.333883,45.434577],[12.333819,45.434541],[12.333553,45.434411],[12.333442,45.434353],[12.333294,45.434276],[12.333246,45.434244],[12.333109,45.434129],[12.333053,45.434075],[12.333015,45.434025],[12.332984,45.433974],[12.332952,45.433901],[12.332918,45.433777],[12.332911,45.433723],[12.332902,45.433608],[12.332904,45.433593],[12.332909,45.433547],[12.332919,45.433436],[12.332938,45.433364],[12.33299,45.433234]]}},{"type":"Feature","properties":{},"geometry":{"type":"LineString","coordinates":[[12.331255,45.434452],[12.331416,45.434529],[12.331695,45.434711],[12.33153,45.43487],[12.331376,45.435],[12.331015,45.435409],[12.330835,45.435643],[12.330714,45.43589]]}},{"type":"Feature","properties":{},"geometry":{"type":"LineString","coordinates":[[12.329569,45.431444],[12.329724,45.431674],[12.330083,45.432441]]}},{"type":"Feature","properties":{},"geometry":{"type":"LineString","coordinates":[[12.328714,45.431754],[12.329284,45.432386],[12.329453,45.4326],[12.329683,45.432843],[12.329955,45.433129],[12.329631,45.433292]]}},{"type":"Feature","properties":{},"geometry":{"type":"LineString","coordinates":[[12.330762,45.437742],[12.330856,45.437745],[12.330932,45.43777],[12.331096,45.437833],[12.33121,45.437903],[12.331535,45.438079],[12.331641,45.438113],[12.331767,45.43817],[12.331853,45.43823],[12.331782,45.438327]]}},{"type":"Feature","properties":{},"geometry":{"type":"LineString","coordinates":[[12.338353,45.435329],[12.338341,45.435346],[12.338313,45.435364],[12.338169,45.435443],[12.337976,45.435542],[12.337873,45.435588],[12.337822,45.435596],[12.337777,45.435598],[12.337724,45.435595],[12.337675,45.435592],[12.337626,45.435595],[12.337511,45.435629],[12.337437,45.435658],[12.337279,45.435726],[12.337227,45.435759]]}},{"type":"Feature","properties":{},"geometry":{"type":"LineString","coordinates":[[12.336618,45.434385],[12.336647,45.434376],[12.336707,45.434363],[12.336801,45.434347],[12.336874,45.43432],[12.336973,45.434225],[12.337015,45.434207],[12.337066,45.434204],[12.337149,45.434215]]}},{"type":"Feature","properties":{},"geometry":{"type":"LineString","coordinates":[[12.340135,45.431461],[12.33943,45.432358],[12.339113,45.432933],[12.339008,45.433176],[12.338891,45.433404],[12.337889,45.433169],[12.337506,45.433087],[12.33745,45.433062],[12.33739,45.433006],[12.337385,45.432919],[12.337419,45.432831],[12.337612,45.432449],[12.337783,45.432032],[12.337807,45.431581]]}},{"type":"Feature","properties":{},"geometry":{"type":"LineString","coordinates":[[12.30948,45.431787],[12.31031,45.432782],[12.310874,45.433457],[12.31093,45.433524],[12.311039,45.433655],[12.311143,45.433775],[12.311405,45.434077],[12.311784,45.43453],[12.312919,45.43586],[12.313815,45.436888],[12.314381,45.437501],[12.314775,45.437927],[12.315227,45.43834],[12.315404,45.438501],[12.315667,45.438742],[12.315808,45.438871],[12.316063,45.439104],[12.316462,45.4394],[12.316515,45.439435],[12.317015,45.439701],[12.317689,45.439955],[12.317775,45.439984],[12.318257,45.440148]]}},{"type":"Feature","properties":{},"geometry":{"type":"LineString","coordinates":[[12.332225,45.441289],[12.33191,45.441072],[12.331758,45.440939],[12.331707,45.4409],[12.331672,45.440863],[12.331317,45.440458],[12.331164,45.440263],[12.330691,45.439617],[12.330336,45.439146],[12.33015,45.438959],[12.330039,45.438869],[12.329815,45.438726],[12.329631,45.438672],[12.329499,45.438646],[12.329391,45.438598],[12.329223,45.438511],[12.329217,45.438508],[12.329158,45.438474],[12.329021,45.438384],[12.328736,45.438191],[12.328597,45.438083],[12.328504,45.438001],[12.328418,45.437929],[12.328412,45.437881]]}},{"type":"Feature","properties":{},"geometry":{"type":"LineString","coordinates":[[12.319768,45.438836],[12.319844,45.438639],[12.319964,45.437902],[12.320011,45.437738],[12.320103,45.43743],[12.320108,45.437373],[12.320076,45.437109],[12.320059,45.437013],[12.320061,45.436977],[12.320299,45.436374],[12.320447,45.436293],[12.321012,45.436081],[12.321217,45.435952],[12.321343,45.435822],[12.321529,45.435751],[12.323243,45.435477]]}},{"type":"Feature","properties":{},"geometry":{"type":"LineString","coordinates":[[12.315824,45.436149],[12.316053,45.435671],[12.316287,45.434736]]}},{"type":"Feature","properties":{},"geometry":{"type":"LineString","coordinates":[[12.321134,45.435572],[12.32076,45.435213],[12.320593,45.435108],[12.320533,45.435059],[12.319972,45.434757]]}},{"type":"Feature","properties":{},"geometry":{"type":"LineString","coordinates":[[12.329705,45.427377],[12.329034,45.425838],[12.328663,45.424874],[12.328552,45.424702],[12.327944,45.423757],[12.327739,45.423437]]}},{"type":"Feature","properties":{},"geometry":{"type":"LineString","coordinates":[[12.319972,45.434757],[12.320034,45.434712],[12.320984,45.433717],[12.321045,45.433648]]}},{"type":"Feature","properties":{},"geometry":{"type":"LineString","coordinates":[[12.357602,45.452341],[12.356096,45.453224],[12.356207,45.454411],[12.356218,45.454712],[12.356182,45.45539],[12.356155,45.455541],[12.356121,45.455711]]}},{"type":"Feature","properties":{},"geometry":{"type":"LineString","coordinates":[[12.319733,45.426806],[12.319803,45.426788],[12.322022,45.426229],[12.322911,45.426007],[12.322965,45.425994]]}},{"type":"Feature","properties":{},"geometry":{"type":"LineString","coordinates":[[12.330762,45.437742],[12.330688,45.437884],[12.330582,45.43801],[12.330355,45.438255],[12.330352,45.438263]]}},{"type":"Feature","properties":{},"geometry":{"type":"LineString","coordinates":[[12.320059,45.437013],[12.31994,45.437023],[12.319783,45.437027],[12.316589,45.436384]]}},{"type":"Feature","properties":{},"geometry":{"type":"LineString","coordinates":[[12.330039,45.438869],[12.32983,45.439],[12.329724,45.439069],[12.329515,45.439206],[12.329367,45.439293],[12.329336,45.439312],[12.328935,45.439557],[12.328805,45.439625],[12.328655,45.439704],[12.328469,45.439749]]}},{"type":"Feature","properties":{},"geometry":{"type":"LineString","coordinates":[[12.34637,45.45438],[12.346182,45.454355],[12.345981,45.454352],[12.345444,45.454357],[12.344884,45.454323],[12.344318,45.454201],[12.343465,45.453934],[12.342942,45.453692],[12.342237,45.453387],[12.342083,45.453345]]}},{"type":"Feature","properties":{},"geometry":{"type":"LineString","coordinates":[[12.331837,45.441498],[12.331621,45.441283],[12.331248,45.440952],[12.330923,45.44067],[12.330413,45.440292],[12.330196,45.440114],[12.329906,45.439874],[12.329527,45.439524],[12.329336,45.439312]]}},{"type":"Feature","properties":{},"geometry":{"type":"LineString","coordinates":[[12.326435,45.445942],[12.326698,45.44683]]}},{"type":"Feature","properties":{},"geometry":{"type":"LineString","coordinates":[[12.331483,45.445493],[12.331579,45.445584],[12.331889,45.445843],[12.332014,45.445957],[12.332117,45.446076]]}},{"type":"Feature","properties":{},"geometry":{"type":"LineString","coordinates":[[12.335558,45.433065],[12.335557,45.432992],[12.335678,45.432625],[12.335887,45.432213],[12.335971,45.432029],[12.336474,45.431545]]}},{"type":"Feature","properties":{},"geometry":{"type":"LineString","coordinates":[[12.331836,45.443453],[12.332313,45.443196],[12.332608,45.44305],[12.332874,45.442892],[12.333246,45.442634],[12.333342,45.442561]]}},{"type":"Feature","properties":{},"geometry":{"type":"LineString","coordinates":[[12.326846,45.44764],[12.324466,45.448304],[12.324161,45.448414]]}},{"type":"Feature","properties":{},"geometry":{"type":"LineString","coordinates":[[12.329973,45.445051],[12.330101,45.445285],[12.330233,45.445515],[12.33038,45.445788]]}},{"type":"Feature","properties":{},"geometry":{"type":"LineString","coordinates":[[12.326525,45.445918],[12.326435,45.445942],[12.324468,45.446453],[12.321577,45.447136]]}},{"type":"Feature","properties":{},"geometry":{"type":"LineString","coordinates":[[12.350319,45.438158],[12.349652,45.438341],[12.349963,45.43886],[12.349988,45.438944],[12.349929,45.438995],[12.349917,45.43904],[12.349971,45.439206]]}},{"type":"Feature","properties":{},"geometry":{"type":"LineString","coordinates":[[12.329815,45.438726],[12.329954,45.438606],[12.330148,45.438445],[12.330352,45.438263]]}},{"type":"Feature","properties":{},"geometry":{"type":"LineString","coordinates":[[12.328833,45.437466],[12.328769,45.437442],[12.328497,45.437347]]}},{"type":"Feature","properties":{},"geometry":{"type":"LineString","coordinates":[[12.323243,45.435477],[12.323374,45.435466],[12.323635,45.435473],[12.323883,45.435473],[12.324055,45.43546],[12.324109,45.435448],[12.324141,45.435435],[12.324305,45.435341],[12.324539,45.435196],[12.324617,45.435159],[12.325268,45.434937],[12.325653,45.434806],[12.325991,45.434754],[12.326693,45.43476],[12.326899,45.434762],[12.327252,45.434623]]}},{"type":"Feature","properties":{},"geometry":{"type":"LineString","coordinates":[[12.319596,45.432944],[12.320058,45.433251],[12.32052,45.433481],[12.321045,45.433648],[12.321866,45.43391]]}},{"type":"Feature","properties":{},"geometry":{"type":"LineString","coordinates":[[12.310034,45.425343],[12.310211,45.425696],[12.310723,45.426362],[12.311331,45.427012],[12.311843,45.427928],[12.312667,45.43004]]}},{"type":"Feature","properties":{},"geometry":{"type":"LineString","coordinates":[[12.359035,45.431974],[12.360696,45.432555],[12.364021,45.433901]]}},{"type":"Feature","properties":{},"geometry":{"type":"LineString","coordinates":[[12.317012,45.425843],[12.317457,45.426678],[12.317779,45.427306],[12.318077,45.427889],[12.318463,45.428671],[12.318885,45.42989]]}},{"type":"Feature","properties":{},"geometry":{"type":"LineString","coordinates":[[12.324161,45.448414],[12.324152,45.448467],[12.323317,45.449339]]}},{"type":"Feature","properties":{},"geometry":{"type":"LineString","coordinates":[[12.324627,45.436508],[12.324196,45.435681],[12.324139,45.435521],[12.324109,45.435448]]}},{"type":"Feature","properties":{},"geometry":{"type":"LineString","coordinates":[[12.32328,45.44817],[12.323928,45.448234],[12.324055,45.448223]]}},{"type":"Feature","properties":{},"geometry":{"type":"LineString","coordinates":[[12.327944,45.423757],[12.326916,45.424003],[12.32664,45.423468]]}},{"type":"Feature","properties":{},"geometry":{"type":"LineString","coordinates":[[12.346324,45.437837],[12.347372,45.437758],[12.347677,45.437724],[12.3479,45.437695],[12.348099,45.437661],[12.348248,45.437623],[12.348429,45.437569],[12.348571,45.437521],[12.348824,45.437424],[12.349198,45.437275],[12.349365,45.437218],[12.350055,45.436946]]}},{"type":"Feature","properties":{},"geometry":{"type":"LineString","coordinates":[[12.321093,45.437033],[12.321021,45.437053],[12.320199,45.437102],[12.320076,45.437109]]}},{"type":"Feature","properties":{},"geometry":{"type":"LineString","coordinates":[[12.316589,45.436384],[12.316545,45.436375]]}},{"type":"Feature","properties":{},"geometry":{"type":"LineString","coordinates":[[12.316545,45.436375],[12.316058,45.436277],[12.315824,45.436149]]}},{"type":"Feature","properties":{},"geometry":{"type":"LineString","coordinates":[[12.34535,45.433696],[12.345434,45.434047],[12.345502,45.434284],[12.345731,45.434867],[12.345842,45.435054],[12.345939,45.43524],[12.346029,45.435442]]}},{"type":"Feature","properties":{},"geometry":{"type":"LineString","coordinates":[[12.346029,45.435442],[12.346063,45.435623],[12.346034,45.43576],[12.345936,45.435925],[12.345858,45.436047],[12.345785,45.436191],[12.345767,45.436265],[12.345771,45.43635],[12.345798,45.436442],[12.345865,45.436632],[12.345912,45.436806],[12.345916,45.436902],[12.345913,45.437019],[12.345902,45.437137],[12.345873,45.437252],[12.345791,45.437462],[12.345729,45.437635],[12.345718,45.437746],[12.345715,45.43781],[12.345725,45.437844]]}},{"type":"Feature","properties":{},"geometry":{"type":"LineString","coordinates":[[12.322628,45.436538],[12.321963,45.436756],[12.321093,45.437033]]}},{"type":"Feature","properties":{},"geometry":{"type":"LineString","coordinates":[[12.346213,45.432187],[12.346646,45.430494],[12.347258,45.429662],[12.348148,45.428453],[12.349336,45.427457],[12.350401,45.426563],[12.354456,45.423356],[12.354475,45.422689]]}},{"type":"Feature","properties":{},"geometry":{"type":"LineString","coordinates":[[12.317618,45.447662],[12.318448,45.44809],[12.321066,45.448723],[12.323317,45.449339],[12.326594,45.450118],[12.328149,45.449966],[12.329507,45.449804],[12.331801,45.449448]]}},{"type":"Feature","properties":{},"geometry":{"type":"LineString","coordinates":[[12.337192,45.44602],[12.33831,45.44493],[12.339508,45.444034],[12.339864,45.443768],[12.340861,45.443304],[12.34137,45.44301],[12.341682,45.442772],[12.342004,45.442587],[12.342814,45.442121],[12.344665,45.441057],[12.346322,45.440124],[12.346504,45.440022],[12.34675,45.439874],[12.347908,45.439511],[12.349962,45.439207],[12.349971,45.439206],[12.350532,45.439152],[12.35146,45.439087],[12.351886,45.438973]]}},{"type":"Feature","properties":{},"geometry":{"type":"LineString","coordinates":[[12.351886,45.438973],[12.353171,45.438519],[12.354601,45.438368],[12.355287,45.438479],[12.356609,45.438997],[12.358101,45.439979],[12.359915,45.440845],[12.360438,45.440999],[12.360969,45.441086],[12.362692,45.441298],[12.364276,45.441237],[12.364491,45.441201],[12.365526,45.441079],[12.366565,45.440525]]}},{"type":"Feature","properties":{},"geometry":{"type":"LineString","coordinates":[[12.366565,45.440525],[12.367386,45.440234],[12.367827,45.440115],[12.36962,45.439691],[12.371188,45.439224],[12.373474,45.438458],[12.373648,45.438322],[12.373822,45.438184],[12.374056,45.438122],[12.373969,45.437751],[12.372285,45.43515],[12.371455,45.434294],[12.371101,45.434121],[12.368621,45.433132],[12.367986,45.432884],[12.36776,45.432478],[12.36736,45.431575],[12.367212,45.431284],[12.366499,45.430964],[12.366064,45.430758]]}},{"type":"Feature","properties":{},"geometry":{"type":"LineString","coordinates":[[12.379493,45.435997],[12.379084,45.437044],[12.379093,45.437276],[12.378852,45.437864],[12.378745,45.438284],[12.37895,45.438972],[12.378941,45.439924],[12.378771,45.440462],[12.37817,45.441534],[12.377888,45.44176],[12.377309,45.44208],[12.376971,45.442537],[12.37652,45.443058],[12.376009,45.443642],[12.375634,45.443891],[12.373507,45.445086],[12.373153,45.445535],[12.368902,45.445222]]}},{"type":"Feature","properties":{},"geometry":{"type":"LineString","coordinates":[[12.354475,45.422689],[12.358517,45.422548],[12.361239,45.42286]]}},{"type":"Feature","properties":{},"geometry":{"type":"LineString","coordinates":[[12.338928,45.414558],[12.33849,45.41485],[12.338018,45.41577],[12.33768,45.417049],[12.337849,45.417988],[12.337986,45.418706],[12.338142,45.419869],[12.338168,45.420062],[12.338661,45.421327],[12.338867,45.421602],[12.339327,45.42214],[12.34115,45.424618],[12.341397,45.425038],[12.341891,45.426086],[12.342291,45.427399],[12.342384,45.427705],[12.341879,45.428716],[12.341097,45.429437],[12.34066,45.431428]]}},{"type":"Feature","properties":{},"geometry":{"type":"LineString","coordinates":[[12.341397,45.425038],[12.342322,45.425221],[12.343867,45.425466],[12.345615,45.42586],[12.346428,45.426071],[12.347721,45.426608],[12.348705,45.427184],[12.349336,45.427457]]}},{"type":"Feature","properties":{},"geometry":{"type":"LineString","coordinates":[[12.345615,45.42586],[12.345704,45.426294],[12.346086,45.427692],[12.346477,45.428628],[12.346729,45.429281],[12.347258,45.429662]]}},{"type":"Feature","properties":{},"geometry":{"type":"LineString","coordinates":[[12.346086,45.427692],[12.345818,45.427695],[12.345099,45.427866]]}},{"type":"Feature","properties":{},"geometry":{"type":"LineString","coordinates":[[12.343867,45.425466],[12.343619,45.426023],[12.342793,45.427156],[12.342291,45.427399]]}},{"type":"Feature","properties":{},"geometry":{"type":"LineString","coordinates":[[12.362962,45.408573],[12.362984,45.408617],[12.363536,45.409562],[12.364036,45.410645],[12.36434,45.411296],[12.364676,45.411939],[12.365088,45.412733],[12.365104,45.412764],[12.365491,45.413576],[12.365654,45.413968],[12.3663,45.415328],[12.366952,45.416177],[12.367197,45.416471],[12.367254,45.416998],[12.36701,45.41745],[12.366659,45.418101],[12.366636,45.418199],[12.366397,45.419199],[12.366086,45.420066],[12.36596,45.420587],[12.365858,45.421197],[12.365794,45.421531]]}},{"type":"Feature","properties":{},"geometry":{"type":"LineString","coordinates":[[12.36701,45.41745],[12.367516,45.417743],[12.368291,45.418133],[12.3685,45.418215],[12.368457,45.419326],[12.368184,45.419952],[12.368146,45.421159],[12.367657,45.421624]]}},{"type":"Feature","properties":{},"geometry":{"type":"LineString","coordinates":[[12.328461,45.422548],[12.330501,45.422645],[12.331319,45.422893],[12.331941,45.423002],[12.333245,45.423001],[12.334379,45.422933],[12.335756,45.422935],[12.336923,45.422964],[12.337125,45.422991],[12.337278,45.42301],[12.337871,45.423174],[12.338642,45.423417],[12.339128,45.423607],[12.339478,45.423794],[12.340029,45.424144],[12.340865,45.424708],[12.341397,45.425038]]}},{"type":"Feature","properties":{},"geometry":{"type":"LineString","coordinates":[[12.333245,45.423001],[12.333271,45.423146]]}},{"type":"Feature","properties":{},"geometry":{"type":"LineString","coordinates":[[12.337125,45.422991],[12.337306,45.422789],[12.338457,45.421892],[12.33868,45.421686],[12.338867,45.421602]]}},{"type":"Feature","properties":{},"geometry":{"type":"LineString","coordinates":[[12.312258,45.424606],[12.314063,45.423791],[12.3151,45.423267],[12.315792,45.423128],[12.316441,45.422976],[12.317963,45.422798],[12.319754,45.422206],[12.320405,45.421844],[12.32124,45.421118],[12.321821,45.420403],[12.322422,45.418788],[12.322465,45.417586],[12.322146,45.4161],[12.32192,45.414947],[12.321566,45.413526],[12.321615,45.412786],[12.321764,45.412285],[12.322626,45.411737],[12.32346,45.411355],[12.323848,45.411204]]}},{"type":"Feature","properties":{},"geometry":{"type":"LineString","coordinates":[[12.327556,45.422868],[12.327739,45.423437]]}},{"type":"Feature","properties":{},"geometry":{"type":"LineString","coordinates":[[12.316731,45.42553],[12.317012,45.425843]]}},{"type":"Feature","properties":{},"geometry":{"type":"LineString","coordinates":[[12.313605,45.424877],[12.313366,45.425221]]}},{"type":"Feature","properties":{},"geometry":{"type":"LineString","coordinates":[[12.308935,45.42268],[12.309504,45.422996],[12.310382,45.423751],[12.311564,45.424387],[12.312258,45.424606]]}},{"type":"Feature","properties":{},"geometry":{"type":"LineString","coordinates":[[12.305758,45.426975],[12.30772,45.426091],[12.308771,45.425658],[12.309533,45.42547],[12.310034,45.425343],[12.310761,45.425158],[12.312258,45.424606]]}},{"type":"Feature","properties":{},"geometry":{"type":"LineString","coordinates":[[12.305758,45.426975],[12.3067,45.427736],[12.310968,45.430051]]}},{"type":"Feature","properties":{},"geometry":{"type":"LineString","coordinates":[[12.317618,45.447662],[12.31794,45.446727],[12.317354,45.446257],[12.316736,45.445826],[12.316358,45.445407],[12.316232,45.445036],[12.316407,45.444811],[12.316586,45.444537],[12.31672,45.444391],[12.316725,45.444241],[12.316045,45.443616],[12.315537,45.443193],[12.315313,45.443176],[12.315007,45.443152],[12.314886,45.443142],[12.314671,45.442771],[12.314756,45.442478],[12.314992,45.442324],[12.315062,45.44229],[12.315385,45.442127]]}},{"type":"Feature","properties":{},"geometry":{"type":"LineString","coordinates":[[12.314992,45.442324],[12.314699,45.441995],[12.314356,45.441743],[12.313978,45.44145],[12.313246,45.441356],[12.312023,45.441277]]}},{"type":"Feature","properties":{},"geometry":{"type":"LineString","coordinates":[[12.338928,45.414558],[12.340481,45.415815],[12.342124,45.417254],[12.343116,45.418076],[12.345376,45.419753],[12.348059,45.42126],[12.35045,45.422128],[12.35297,45.422533],[12.354475,45.422689]]}},{"type":"Feature","properties":{},"geometry":{"type":"LineString","coordinates":[[12.312258,45.424606],[12.313605,45.424877],[12.313666,45.424889],[12.315231,45.425247],[12.316731,45.42553],[12.318607,45.424963],[12.320377,45.424134],[12.321622,45.423428],[12.323696,45.423086],[12.327037,45.422947],[12.327556,45.422868],[12.328042,45.422695],[12.328461,45.422548]]}},{"type":"Feature","properties":{},"geometry":{"type":"LineString","coordinates":[[12.318885,45.42989],[12.32034,45.429652],[12.321196,45.429452],[12.32416,45.428761],[12.327503,45.427874],[12.328663,45.427567],[12.329705,45.427377],[12.331615,45.427028],[12.333336,45.427215],[12.334779,45.427689],[12.33632,45.428322],[12.336993,45.428678],[12.338479,45.429888],[12.34066,45.431428]]}},{"type":"Feature","properties":{},"geometry":{"type":"LineString","coordinates":[[12.356909,45.426641],[12.357103,45.426427],[12.359519,45.423776]]}},{"type":"Feature","properties":{},"geometry":{"type":"LineString","coordinates":[[12.30871,45.430596],[12.30948,45.431787]]}},{"type":"Feature","properties":{},"geometry":{"type":"LineString","coordinates":[[12.261426,45.402878],[12.26467,45.403346],[12.268524,45.404384],[12.273825,45.405606],[12.277647,45.406919],[12.281815,45.4088],[12.281914,45.408852],[12.283451,45.409663],[12.284846,45.410536],[12.286123,45.411376],[12.291804,45.415104],[12.293209,45.416162],[12.294534,45.417209],[12.295237,45.418475],[12.295344,45.419254],[12.2947,45.420681],[12.294405,45.422571],[12.294491,45.423591],[12.294896,45.424084],[12.296115,45.424324],[12.298037,45.424295],[12.301958,45.425007]]}},{"type":"Feature","properties":{},"geometry":{"type":"LineString","coordinates":[[12.344313,45.463234],[12.34442,45.462934],[12.344556,45.462577],[12.344686,45.46223],[12.344801,45.461922],[12.345037,45.461213],[12.345051,45.460882],[12.345033,45.460518],[12.345016,45.460167],[12.344541,45.458792],[12.344476,45.458604],[12.34435,45.45805],[12.343934,45.457018],[12.343527,45.455917],[12.343234,45.455213],[12.342246,45.45359],[12.342083,45.453345]]}},{"type":"Feature","properties":{},"geometry":{"type":"LineString","coordinates":[[12.331801,45.449448],[12.332658,45.448327],[12.333186,45.448036],[12.333775,45.447895],[12.334662,45.447496],[12.335553,45.447144],[12.336655,45.446364],[12.337192,45.44602],[12.336891,45.445429],[12.336056,45.444394],[12.336036,45.444246]]}},{"type":"Feature","properties":{},"geometry":{"type":"LineString","coordinates":[[12.317618,45.447662],[12.318409,45.446822]]}},{"type":"Feature","properties":{},"geometry":{"type":"LineString","coordinates":[[12.309137,45.451693],[12.313739,45.448751],[12.315153,45.448007],[12.316137,45.447759],[12.317618,45.447662]]}},{"type":"Feature","properties":{},"geometry":{"type":"LineString","coordinates":[[12.30673,45.452606],[12.308112,45.452132],[12.309137,45.451693]]}},{"type":"Feature","properties":{},"geometry":{"type":"LineString","coordinates":[[12.301006,45.455441],[12.302778,45.45456],[12.303398,45.454251],[12.305489,45.453173],[12.305619,45.453113],[12.30673,45.452606]]}},{"type":"Feature","properties":{},"geometry":{"type":"LineString","coordinates":[[12.305619,45.453113],[12.305703,45.45261],[12.30579,45.452247],[12.306394,45.450872],[12.306677,45.450336],[12.307306,45.449818],[12.308329,45.449022],[12.309051,45.448574],[12.313305,45.446056],[12.315792,45.444721],[12.316229,45.444487],[12.316725,45.444241]]}},{"type":"Feature","properties":{},"geometry":{"type":"LineString","coordinates":[[12.312023,45.441277],[12.310287,45.441181],[12.309504,45.4411],[12.308731,45.440966],[12.306741,45.438924],[12.305336,45.437223],[12.302419,45.43371]]}},{"type":"Feature","properties":{},"geometry":{"type":"LineString","coordinates":[[12.316218,45.441905],[12.316539,45.44172],[12.31733,45.441201],[12.317654,45.440985],[12.317925,45.440625],[12.318109,45.440347],[12.318257,45.440148],[12.318368,45.44],[12.318428,45.439915],[12.318649,45.439604],[12.318831,45.439359],[12.319081,45.439016],[12.31927,45.438878],[12.319524,45.438823],[12.319647,45.438832],[12.319768,45.438836],[12.31992,45.438893],[12.32036,45.439128],[12.32071,45.439426],[12.321196,45.43993],[12.321389,45.440118],[12.321595,45.440326],[12.32181,45.440544],[12.322077,45.440734],[12.322176,45.440809],[12.322279,45.440875],[12.322595,45.441074],[12.323014,45.44125],[12.323239,45.441337],[12.324229,45.441711],[12.325154,45.441997],[12.325499,45.442075],[12.325814,45.442146],[12.32643,45.442292],[12.326752,45.442361],[12.327405,45.442399],[12.328079,45.442389],[12.328576,45.442355],[12.329075,45.442323],[12.329403,45.442267],[12.329924,45.442158],[12.330241,45.442091],[12.330491,45.442025],[12.330741,45.441941],[12.331147,45.441788],[12.331413,45.441684],[12.331651,45.441591],[12.331837,45.441498],[12.332007,45.441414],[12.332225,45.441289],[12.332809,45.440936],[12.332935,45.440869],[12.333476,45.440581],[12.333951,45.44039],[12.334099,45.440326],[12.334514,45.440147],[12.334847,45.439984],[12.335366,45.439718],[12.335748,45.43936],[12.33588,45.439236],[12.336051,45.438959],[12.336195,45.438538],[12.336195,45.438376],[12.336123,45.438238],[12.33603,45.438136],[12.335862,45.437991],[12.335835,45.437969],[12.335415,45.437632],[12.335137,45.437433],[12.334977,45.437345],[12.334735,45.437207],[12.333602,45.436718],[12.333141,45.436574],[12.332881,45.436493],[12.332593,45.436412],[12.332458,45.436374],[12.331274,45.436043],[12.331194,45.43602],[12.331084,45.43599],[12.330714,45.43589],[12.330147,45.435782],[12.329661,45.435642],[12.329583,45.435619],[12.329216,45.43547],[12.328783,45.43535],[12.328639,45.435298],[12.32822,45.435147],[12.327886,45.435007],[12.327762,45.434939],[12.327652,45.43487],[12.327252,45.434623],[12.327127,45.434336],[12.327202,45.43411],[12.327249,45.433908],[12.327293,45.433644],[12.32736,45.433456],[12.327433,45.433203],[12.327478,45.433022],[12.327624,45.432702],[12.327687,45.432428],[12.327763,45.432376],[12.327839,45.432325],[12.328131,45.432128],[12.328515,45.431858],[12.328714,45.431754],[12.329417,45.431484],[12.329569,45.431444],[12.32981,45.43138],[12.330271,45.431289],[12.330424,45.431275],[12.330725,45.431247],[12.331133,45.431236],[12.332025,45.431237],[12.332098,45.431237],[12.332421,45.431249],[12.332525,45.431253],[12.332772,45.431269],[12.333279,45.431295],[12.333632,45.431327],[12.334075,45.431368],[12.334966,45.431437],[12.3352,45.431454],[12.336474,45.431545],[12.33707,45.431587],[12.337807,45.431581],[12.338326,45.431577],[12.339396,45.431507],[12.340135,45.431461],[12.34066,45.431428]]}},{"type":"Feature","properties":{},"geometry":{"type":"LineString","coordinates":[[12.306275,45.431803],[12.311759,45.438228]]}},{"type":"Feature","properties":{},"geometry":{"type":"LineString","coordinates":[[12.260151,45.417772],[12.263867,45.418272],[12.274852,45.418106],[12.275663,45.418041],[12.276677,45.418165],[12.277562,45.418486],[12.278311,45.418876],[12.279144,45.419489],[12.27978,45.420188],[12.280241,45.420822],[12.280713,45.421349],[12.281817,45.421913],[12.283421,45.42241],[12.284586,45.422724],[12.284975,45.422882],[12.285693,45.423217],[12.287878,45.424677],[12.289235,45.425493],[12.291065,45.426352],[12.291644,45.426443],[12.292223,45.426391],[12.293942,45.426129],[12.297958,45.425329],[12.299845,45.424962],[12.301958,45.425007],[12.304254,45.425854],[12.305758,45.426975]]}},{"type":"Feature","properties":{},"geometry":{"type":"LineString","coordinates":[[12.363863,45.434073],[12.364021,45.433901],[12.365126,45.432454],[12.365471,45.431383],[12.365793,45.431074],[12.366064,45.430758],[12.366962,45.429708],[12.370103,45.427781],[12.37361,45.425957]]}},{"type":"Feature","properties":{},"geometry":{"type":"LineString","coordinates":[[12.356894,45.465225],[12.357234,45.464868],[12.357449,45.464202],[12.357514,45.463452],[12.357262,45.462608],[12.357129,45.462007],[12.357109,45.461623],[12.358092,45.461186],[12.35921,45.46075],[12.360375,45.460302],[12.360608,45.460212],[12.361699,45.459574],[12.362078,45.45903],[12.362054,45.45887],[12.361986,45.458418],[12.361303,45.457657],[12.360581,45.457031],[12.360314,45.4568],[12.359778,45.456335],[12.359445,45.45576],[12.359075,45.454925],[12.358994,45.454362],[12.358714,45.453913],[12.358687,45.453837],[12.358056,45.453122],[12.357602,45.452341],[12.35866,45.451925],[12.359534,45.451619],[12.360702,45.451247],[12.36224,45.450621],[12.366068,45.448687],[12.367622,45.447488],[12.368902,45.445222],[12.369487,45.444188]]}},{"type":"Feature","properties":{},"geometry":{"type":"LineString","coordinates":[[12.338868,45.448587],[12.33858,45.448204],[12.338275,45.447716],[12.337933,45.447225],[12.337433,45.446412],[12.337192,45.44602]]}},{"type":"Feature","properties":{},"geometry":{"type":"LineString","coordinates":[[12.347678,45.450095],[12.347672,45.451099],[12.347671,45.451362],[12.347719,45.451614],[12.347778,45.452148],[12.347714,45.452805],[12.347461,45.453236],[12.346587,45.454045],[12.34637,45.45438]]}},{"type":"Feature","properties":{},"geometry":{"type":"LineString","coordinates":[[12.342083,45.453345],[12.341572,45.45258],[12.338868,45.448587]]}},{"type":"Feature","properties":{},"geometry":{"type":"LineString","coordinates":[[12.365471,45.431383],[12.364682,45.430897],[12.364307,45.430705],[12.363577,45.430314],[12.3634,45.42993],[12.363111,45.429448],[12.363078,45.429094],[12.362943,45.428838]]}},{"type":"Feature","properties":{},"geometry":{"type":"LineString","coordinates":[[12.363577,45.430314],[12.363078,45.431594],[12.362563,45.432121]]}},{"type":"Feature","properties":{},"geometry":{"type":"LineString","coordinates":[[12.337101,45.435704],[12.337227,45.435759],[12.3373,45.43581],[12.338018,45.436498]]}},{"type":"Feature","properties":{},"geometry":{"type":"LineString","coordinates":[[12.335981,45.43493],[12.336317,45.434631],[12.336618,45.434385]]}},{"type":"Feature","properties":{},"geometry":{"type":"LineString","coordinates":[[12.337149,45.434215],[12.337485,45.434368],[12.337845,45.434511],[12.338128,45.43465],[12.338294,45.434739]]}},{"type":"Feature","properties":{},"geometry":{"type":"LineString","coordinates":[[12.337101,45.435704],[12.336922,45.435615],[12.336779,45.435552],[12.336607,45.435482],[12.336474,45.435445],[12.336328,45.435395],[12.336268,45.435371],[12.336223,45.435336],[12.336198,45.435301],[12.336192,45.43525],[12.336204,45.435188],[12.336219,45.435135],[12.336222,45.435111],[12.336192,45.435082],[12.335981,45.43493]]}},{"type":"Feature","properties":{},"geometry":{"type":"LineString","coordinates":[[12.338294,45.434739],[12.338208,45.434869],[12.338194,45.434926],[12.338185,45.434985],[12.338196,45.435035],[12.338202,45.435057],[12.338348,45.435313],[12.338353,45.435329]]}},{"type":"Feature","properties":{},"geometry":{"type":"LineString","coordinates":[[12.342259,45.434083],[12.342262,45.434062]]}},{"type":"Feature","properties":{},"geometry":{"type":"LineString","coordinates":[[12.342262,45.434062],[12.342275,45.433951],[12.342305,45.433788],[12.342331,45.433653],[12.342373,45.43354],[12.342552,45.432924],[12.342761,45.432046]]}},{"type":"Feature","properties":{},"geometry":{"type":"LineString","coordinates":[[12.345725,45.437844],[12.34583,45.43787],[12.345929,45.437863],[12.346129,45.437856],[12.346324,45.437837]]}},{"type":"Feature","properties":{},"geometry":{"type":"LineString","coordinates":[[12.328717,45.440573],[12.328905,45.440784],[12.329009,45.440899],[12.329122,45.44102],[12.329242,45.441182],[12.32942,45.441435],[12.329624,45.441728],[12.329792,45.44196],[12.329924,45.442158]]}},{"type":"Feature","properties":{},"geometry":{"type":"LineString","coordinates":[[12.321866,45.43391],[12.322499,45.434151],[12.322778,45.434305],[12.32296,45.434505],[12.323127,45.43475],[12.323207,45.435198],[12.323249,45.435405],[12.323243,45.435477]]}},{"type":"Feature","properties":{},"geometry":{"type":"LineString","coordinates":[[12.321681,45.432783],[12.321495,45.432732]]}},{"type":"Feature","properties":{},"geometry":{"type":"LineString","coordinates":[[12.331485,45.434191],[12.331255,45.434452],[12.330989,45.434772],[12.330906,45.434876],[12.330506,45.434758],[12.33027,45.434732],[12.330214,45.434755],[12.330053,45.434981],[12.32984,45.435351],[12.329661,45.435642]]}},{"type":"Feature","properties":{},"geometry":{"type":"LineString","coordinates":[[12.330022,45.444109],[12.329836,45.443807],[12.329834,45.443722],[12.329819,45.443689],[12.329574,45.44346],[12.329501,45.443367],[12.329438,45.44327],[12.329356,45.443122],[12.329242,45.442869],[12.329143,45.442555],[12.329075,45.442323]]}},{"type":"Feature","properties":{},"geometry":{"type":"LineString","coordinates":[[12.326142,45.438876],[12.326103,45.438878],[12.325731,45.439089],[12.325519,45.439246],[12.324888,45.439622],[12.324299,45.440097],[12.324032,45.440395],[12.323373,45.441178],[12.323239,45.441337]]}},{"type":"Feature","properties":{},"geometry":{"type":"LineString","coordinates":[[12.323696,45.438897],[12.324105,45.438789],[12.324331,45.438723],[12.324579,45.438645],[12.324824,45.438576],[12.324984,45.438542],[12.325247,45.438504],[12.325522,45.438466],[12.325623,45.438457],[12.326142,45.438876]]}},{"type":"Feature","properties":{},"geometry":{"type":"LineString","coordinates":[[12.344376,45.435762],[12.344376,45.435712],[12.344378,45.435538],[12.344406,45.435255],[12.344435,45.435066],[12.344441,45.434898],[12.344447,45.434677],[12.344448,45.434494],[12.344435,45.434306],[12.344413,45.434132],[12.34441,45.433714],[12.344389,45.432271]]}},{"type":"Feature","properties":{},"geometry":{"type":"LineString","coordinates":[[12.355615,45.435499],[12.35658,45.435346],[12.356783,45.435309],[12.357028,45.435245],[12.357275,45.435148],[12.358092,45.434754],[12.358371,45.434683]]}},{"type":"Feature","properties":{},"geometry":{"type":"LineString","coordinates":[[12.329631,45.433292],[12.329303,45.433087],[12.328236,45.432527],[12.327839,45.432325]]}},{"type":"Feature","properties":{},"geometry":{"type":"LineString","coordinates":[[12.351886,45.438973],[12.3517,45.438174],[12.350878,45.436588],[12.350158,45.435139],[12.350217,45.434962]]}},{"type":"Feature","properties":{},"geometry":{"type":"LineString","coordinates":[[12.331714,45.437405],[12.331711,45.437407],[12.331582,45.437525],[12.331578,45.437529]]}},{"type":"Feature","properties":{},"geometry":{"type":"LineString","coordinates":[[12.33121,45.437903],[12.331578,45.437529]]}},{"type":"Feature","properties":{},"geometry":{"type":"LineString","coordinates":[[12.348175,45.457663],[12.348356,45.457207],[12.34848,45.456896],[12.348633,45.455734],[12.348638,45.455554],[12.348612,45.455348],[12.348586,45.455272],[12.348036,45.454977],[12.347301,45.454688],[12.346539,45.454395],[12.34637,45.45438]]}},{"type":"Feature","properties":{},"geometry":{"type":"LineString","coordinates":[[12.364655,45.436213],[12.361774,45.436344],[12.359902,45.435842],[12.359628,45.435723],[12.359062,45.435416],[12.358754,45.435245],[12.358499,45.434904],[12.358371,45.434683],[12.358314,45.434584],[12.358097,45.434136],[12.358144,45.433651],[12.358429,45.433096],[12.358552,45.432851],[12.358633,45.432691],[12.3587,45.432488],[12.358909,45.432179],[12.359035,45.431974]]}},{"type":"Feature","properties":{},"geometry":{"type":"LineString","coordinates":[[12.355548,45.432483],[12.354138,45.432409],[12.350965,45.431969],[12.350782,45.431809]]}},{"type":"Feature","properties":{},"geometry":{"type":"LineString","coordinates":[[12.323463,45.427148],[12.322965,45.425994],[12.322557,45.42505],[12.322079,45.423944]]}},{"type":"Feature","properties":{},"geometry":{"type":"LineString","coordinates":[[12.33342,45.433147],[12.333429,45.433102],[12.33344,45.433025],[12.333448,45.432886],[12.333463,45.432823],[12.333476,45.432732],[12.33349,45.432575],[12.333513,45.432444],[12.33355,45.432085],[12.333565,45.432004],[12.333584,45.431832],[12.333596,45.431648],[12.333632,45.431327]]}},{"type":"Feature","properties":{},"geometry":{"type":"LineString","coordinates":[[12.334339,45.442991],[12.334138,45.44294],[12.333905,45.442858],[12.333481,45.442631],[12.333342,45.442561],[12.333257,45.442509],[12.333152,45.442436],[12.332714,45.442],[12.33224,45.441632],[12.332007,45.441414]]}},{"type":"Feature","properties":{},"geometry":{"type":"LineString","coordinates":[[12.343887,45.437554],[12.343848,45.437568],[12.343628,45.437661],[12.343249,45.437829],[12.342936,45.437959],[12.342638,45.438067],[12.342262,45.438247],[12.342245,45.438259],[12.34218,45.43834]]}},{"type":"Feature","properties":{},"geometry":{"type":"LineString","coordinates":[[12.354475,45.422689],[12.354489,45.422516],[12.35451,45.422],[12.354596,45.420065],[12.35642,45.417685],[12.357707,45.415772],[12.359284,45.412895],[12.360143,45.411118],[12.361237,45.409687],[12.361688,45.409235],[12.362962,45.408573]]}},{"type":"Feature","properties":{},"geometry":{"type":"LineString","coordinates":[[12.346491,45.449937],[12.346112,45.449205],[12.343986,45.447319],[12.342887,45.446231],[12.340929,45.444131]]}},{"type":"Feature","properties":{},"geometry":{"type":"LineString","coordinates":[[12.340929,45.444131],[12.341222,45.443684],[12.341432,45.443296],[12.34137,45.44301]]}},{"type":"Feature","properties":{},"geometry":{"type":"LineString","coordinates":[[12.340929,45.444131],[12.340681,45.444118],[12.340478,45.444107],[12.34029,45.444054],[12.339891,45.443996],[12.339508,45.444034]]}},{"type":"Feature","properties":{},"geometry":{"type":"LineString","coordinates":[[12.3685,45.418215],[12.36935,45.418327],[12.370198,45.41838],[12.371356,45.41847],[12.37208,45.418743],[12.372177,45.418779],[12.374017,45.41957],[12.37509,45.420263],[12.375584,45.421091],[12.376079,45.422001],[12.376388,45.422567],[12.376742,45.423546],[12.376884,45.424158],[12.377461,45.425312],[12.378566,45.426791],[12.379195,45.427545]]}},{"type":"Feature","properties":{},"geometry":{"type":"LineString","coordinates":[[12.329217,45.438508],[12.329232,45.438499],[12.329346,45.438425],[12.32956,45.438295],[12.329754,45.43818]]}}]}